{"type": "FeatureCollection", "features": [ {"type": "Feature", "properties": {"norad_id": 34077, "name": "IRIDIUM 33 DEB", "group": "iridium-33-debris", "lat": 36.71974368127181, "lon": -132.05805101312328, "alt_km": 677.4527911066925, "timestamp": "2025-12-14T16:47:41.067679+00:00", "meta": {"OBJECT_NAME": "IRIDIUM 33 DEB", "OBJECT_ID": "1997-051CL", "EPOCH": "2025-12-13T14:27:56.188224", "MEAN_MOTION": 14.64854773, "ECCENTRICITY": 0.00101196, "INCLINATION": 86.3862, "RA_OF_ASC_NODE": 51.127, "ARG_OF_PERICENTER": 36.6624, "MEAN_ANOMALY": 84.8045, "EPHEMERIS_TYPE": 0, "CLASSIFICATION_TYPE": "U", "NORAD_CAT_ID": 34077, "ELEMENT_SET_NO": 999, "REV_AT_EPOCH": 88345, "BSTAR": 0.0015176462, "MEAN_MOTION_DOT": 8.133e-05, "MEAN_MOTION_DDOT": 0}, "tle": {"line1": "1 34077U 97051CL  25347.60273366  .00008133  00000+0  15176-2 0  9993", "line2": "2 34077  86.3862  51.1270 0010119  36.6624  84.8045 14.64854773883457"}}, "geometry": {"type": "Point", "coordinates": [-132.05805101312328, 36.71974368127181]}}, {"type": "Feature", "properties": {"norad_id": 34079, "name": "IRIDIUM 33 DEB", "group": "iridium-33-debris", "lat": -84.96671650407228, "lon": -126.24176922995503, "alt_km": 625.7923423946077, "timestamp": "2025-12-14T16:47:41.067690+00:00", "meta": {"OBJECT_NAME": "IRIDIUM 33 DEB", "OBJECT_ID": "1997-051CN", "EPOCH": "2025-12-13T19:20:48.276384", "MEAN_MOTION": 14.8356913, "ECCENTRICITY": 0.00054496, "INCLINATION": 86.3781, "RA_OF_ASC_NODE": 8.1776, "ARG_OF_PERICENTER": 4.7034, "MEAN_ANOMALY": 172.0319, "EPHEMERIS_TYPE": 0, "CLASSIFICATION_TYPE": "U", "NORAD_CAT_ID": 34079, "ELEMENT_SET_NO": 999, "REV_AT_EPOCH": 88993, "BSTAR": 0.0017208516, "MEAN_MOTION_DOT": 0.00014216, "MEAN_MOTION_DDOT": 0}, "tle": {"line1": "1 34079U 97051CN  25347.80611431  .00014216  00000+0  17209-2 0  9994", "line2": "2 34079  86.3781   8.1776 0005449   4.7034 172.0319 14.83569130889937"}}, "geometry": {"type": "Point", "coordinates": [-126.24176922995503, -84.96671650407228]}}, {"type": "Feature", "properties": {"norad_id": 34088, "name": "IRIDIUM 33 DEB", "group": "iridium-33-debris", "lat": 53.145981941655215, "lon": 34.6614490278295, "alt_km": 590.1703828128775, "timestamp": "2025-12-14T16:47:41.067701+00:00", "meta": {"OBJECT_NAME": "IRIDIUM 33 DEB", "OBJECT_ID": "1997-051CX", "EPOCH": "2025-12-13T15:20:46.536000", "MEAN_MOTION": 14.91450641, "ECCENTRICITY": 0.00058418, "INCLINATION": 86.3853, "RA_OF_ASC_NODE": 30.3107, "ARG_OF_PERICENTER": 173.407, "MEAN_ANOMALY": 310.4314, "EPHEMERIS_TYPE": 0, "CLASSIFICATION_TYPE": "U", "NORAD_CAT_ID": 34088, "ELEMENT_SET_NO": 999, "REV_AT_EPOCH": 88755, "BSTAR": 0.0025953124, "MEAN_MOTION_DOT": 0.00026038, "MEAN_MOTION_DDOT": 0}, "tle": {"line1": "1 34088U 97051CX  25347.63942750  .00026038  00000+0  25953-2 0  9996", "line2": "2 34088  86.3853  30.3107 0005841 173.4070 310.4314 14.91450641887556"}}, "geometry": {"type": "Point", "coordinates": [34.6614490278295, 53.145981941655215]}}, {"type": "Feature", "properties": {"norad_id": 34091, "name": "IRIDIUM 33 DEB", "group": "iridium-33-debris", "lat": 8.360419128932003, "lon": -114.60293868714854, "alt_km": 634.6433715136764, "timestamp": "2025-12-14T16:47:41.067711+00:00", "meta": {"OBJECT_NAME": "IRIDIUM 33 DEB", "OBJECT_ID": "1997-051DA", "EPOCH": "2025-12-13T17:19:57.788832", "MEAN_MOTION": 14.81942136, "ECCENTRICITY": 0.00333563, "INCLINATION": 86.3415, "RA_OF_ASC_NODE": 66.3836, "ARG_OF_PERICENTER": 289.6815, "MEAN_ANOMALY": 70.0809, "EPHEMERIS_TYPE": 0, "CLASSIFICATION_TYPE": "U", "NORAD_CAT_ID": 34091, "ELEMENT_SET_NO": 999, "REV_AT_EPOCH": 87881, "BSTAR": 0.0045703792, "MEAN_MOTION_DOT": 0.00036723, "MEAN_MOTION_DDOT": 0}, "tle": {"line1": "1 34091U 97051DA  25347.72219663  .00036723  00000+0  45704-2 0  9998", "line2": "2 34091  86.3415  66.3836 0033356 289.6815  70.0809 14.81942136878812"}}, "geometry": {"type": "Point", "coordinates": [-114.60293868714854, 8.360419128932003]}}, {"type": "Feature", "properties": {"norad_id": 34097, "name": "IRIDIUM 33 DEB", "group": "iridium-33-debris", "lat": 86.0574539851191, "lon": 75.1506036582853, "alt_km": 771.0084175936718, "timestamp": "2025-12-14T16:47:41.067722+00:00", "meta": {"OBJECT_NAME": "IRIDIUM 33 DEB", "OBJECT_ID": "1997-051DG", "EPOCH": "2025-12-13T23:38:53.687040", "MEAN_MOTION": 14.34790715, "ECCENTRICITY": 0.0082418, "INCLINATION": 86.2009, "RA_OF_ASC_NODE": 0.8584, "ARG_OF_PERICENTER": 358.1458, "MEAN_ANOMALY": 1.9419, "EPHEMERIS_TYPE": 0, "CLASSIFICATION_TYPE": "U", "NORAD_CAT_ID": 34097, "ELEMENT_SET_NO": 999, "REV_AT_EPOCH": 87137, "BSTAR": 0.0016921642, "MEAN_MOTION_DOT": 5.004e-05, "MEAN_MOTION_DDOT": 0}, "tle": {"line1": "1 34097U 97051DG  25347.98534360  .00005004  00000+0  16922-2 0  9994", "line2": "2 34097  86.2009   0.8584 0082418 358.1458   1.9419 14.34790715871373"}}, "geometry": {"type": "Point", "coordinates": [75.1506036582853, 86.0574539851191]}}, {"type": "Feature", "properties": {"norad_id": 34145, "name": "IRIDIUM 33 DEB", "group": "iridium-33-debris", "lat": 49.59616886712762, "lon": -23.88076833442212, "alt_km": 714.9034116101839, "timestamp": "2025-12-14T16:47:41.067732+00:00", "meta": {"OBJECT_NAME": "IRIDIUM 33 DEB", "OBJECT_ID": "1997-051DY", "EPOCH": "2025-12-13T23:54:55.550592", "MEAN_MOTION": 14.42301532, "ECCENTRICITY": 0.00557549, "INCLINATION": 86.2116, "RA_OF_ASC_NODE": 331.9677, "ARG_OF_PERICENTER": 89.7905, "MEAN_ANOMALY": 270.9684, "EPHEMERIS_TYPE": 0, "CLASSIFICATION_TYPE": "U", "NORAD_CAT_ID": 34145, "ELEMENT_SET_NO": 999, "REV_AT_EPOCH": 87656, "BSTAR": 0.0013273066, "MEAN_MOTION_DOT": 4.482e-05, "MEAN_MOTION_DDOT": 0}, "tle": {"line1": "1 34145U 97051DY  25347.99647628  .00004482  00000+0  13273-2 0  9996", "line2": "2 34145  86.2116 331.9677 0055754  89.7905 270.9684 14.42301532876566"}}, "geometry": {"type": "Point", "coordinates": [-23.88076833442212, 49.59616886712762]}}, {"type": "Feature", "properties": {"norad_id": 34146, "name": "IRIDIUM 33 DEB", "group": "iridium-33-debris", "lat": 83.5776090243778, "lon": 133.66993643063233, "alt_km": 730.229327496545, "timestamp": "2025-12-14T16:47:41.067743+00:00", "meta": {"OBJECT_NAME": "IRIDIUM 33 DEB", "OBJECT_ID": "1997-051DZ", "EPOCH": "2025-12-14T00:04:18.817248", "MEAN_MOTION": 14.49061779, "ECCENTRICITY": 0.00255883, "INCLINATION": 86.284, "RA_OF_ASC_NODE": 349.2428, "ARG_OF_PERICENTER": 217.172, "MEAN_ANOMALY": 205.7661, "EPHEMERIS_TYPE": 0, "CLASSIFICATION_TYPE": "U", "NORAD_CAT_ID": 34146, "ELEMENT_SET_NO": 999, "REV_AT_EPOCH": 88125, "BSTAR": 0.0011362726, "MEAN_MOTION_DOT": 4.35e-05, "MEAN_MOTION_DDOT": 0}, "tle": {"line1": "1 34146U 97051DZ  25348.00299557  .00004350  00000+0  11363-2 0  9996", "line2": "2 34146  86.2840 349.2428 0025588 217.1720 205.7661 14.49061779881257"}}, "geometry": {"type": "Point", "coordinates": [133.66993643063233, 83.5776090243778]}}, {"type": "Feature", "properties": {"norad_id": 34159, "name": "IRIDIUM 33 DEB", "group": "iridium-33-debris", "lat": 83.02116559221733, "lon": -164.01228931278897, "alt_km": 774.5439338035922, "timestamp": "2025-12-14T16:47:41.067754+00:00", "meta": {"OBJECT_NAME": "IRIDIUM 33 DEB", "OBJECT_ID": "1997-051EN", "EPOCH": "2025-12-13T15:18:25.992576", "MEAN_MOTION": 14.38498063, "ECCENTRICITY": 0.0026, "INCLINATION": 86.3513, "RA_OF_ASC_NODE": 47.8583, "ARG_OF_PERICENTER": 284.6423, "MEAN_ANOMALY": 75.1892, "EPHEMERIS_TYPE": 0, "CLASSIFICATION_TYPE": "U", "NORAD_CAT_ID": 34159, "ELEMENT_SET_NO": 999, "REV_AT_EPOCH": 87972, "BSTAR": 0.00058950971, "MEAN_MOTION_DOT": 1.826e-05, "MEAN_MOTION_DDOT": 0}, "tle": {"line1": "1 34159U 97051EN  25347.63780084  .00001826  00000+0  58951-3 0  9998", "line2": "2 34159  86.3513  47.8583 0026000 284.6423  75.1892 14.38498063879723"}}, "geometry": {"type": "Point", "coordinates": [-164.01228931278897, 83.02116559221733]}}, {"type": "Feature", "properties": {"norad_id": 34350, "name": "IRIDIUM 33 DEB", "group": "iridium-33-debris", "lat": 6.432940727709837, "lon": -178.45800501510226, "alt_km": 731.301795086476, "timestamp": "2025-12-14T16:47:41.067764+00:00", "meta": {"OBJECT_NAME": "IRIDIUM 33 DEB", "OBJECT_ID": "1997-051ES", "EPOCH": "2025-12-13T14:00:17.029152", "MEAN_MOTION": 14.45389199, "ECCENTRICITY": 0.00228878, "INCLINATION": 86.3275, "RA_OF_ASC_NODE": 2.4411, "ARG_OF_PERICENTER": 132.5486, "MEAN_ANOMALY": 356.1035, "EPHEMERIS_TYPE": 0, "CLASSIFICATION_TYPE": "U", "NORAD_CAT_ID": 34350, "ELEMENT_SET_NO": 999, "REV_AT_EPOCH": 88305, "BSTAR": 0.00044409912, "MEAN_MOTION_DOT": 1.586e-05, "MEAN_MOTION_DDOT": 0}, "tle": {"line1": "1 34350U 97051ES  25347.58353043  .00001586  00000+0  44410-3 0  9994", "line2": "2 34350  86.3275   2.4411 0022887 132.5486 356.1035 14.45389199883056"}}, "geometry": {"type": "Point", "coordinates": [-178.45800501510226, 6.432940727709837]}}, {"type": "Feature", "properties": {"norad_id": 34366, "name": "IRIDIUM 33 DEB", "group": "iridium-33-debris", "lat": -22.68230851823529, "lon": -130.01862128879264, "alt_km": 712.1929371020351, "timestamp": "2025-12-14T16:47:41.067777+00:00", "meta": {"OBJECT_NAME": "IRIDIUM 33 DEB", "OBJECT_ID": "1997-051FJ", "EPOCH": "2025-12-13T15:39:41.959008", "MEAN_MOTION": 14.54070514, "ECCENTRICITY": 0.0022578, "INCLINATION": 86.3699, "RA_OF_ASC_NODE": 48.9163, "ARG_OF_PERICENTER": 136.7166, "MEAN_ANOMALY": 347.3709, "EPHEMERIS_TYPE": 0, "CLASSIFICATION_TYPE": "U", "NORAD_CAT_ID": 34366, "ELEMENT_SET_NO": 999, "REV_AT_EPOCH": 88195, "BSTAR": 0.0012496588, "MEAN_MOTION_DOT": 5.312e-05, "MEAN_MOTION_DDOT": 0}, "tle": {"line1": "1 34366U 97051FJ  25347.65256897  .00005312  00000+0  12497-2 0  9998", "line2": "2 34366  86.3699  48.9163 0022578 136.7166 347.3709 14.54070514881955"}}, "geometry": {"type": "Point", "coordinates": [-130.01862128879264, -22.68230851823529]}}]}